{
  "type": "FeatureCollection",
  "features": [
    {
      "type": "Feature",
      "properties": {
        "norad_id": 46805,
        "name": "COSMOS 2547 (705K)",
        "group": "glo-ops",
        "lat": 20.749454762587405,
        "lon": 8.559448256686366,
        "alt_km": 19122.98308260777,
        "timestamp": "2025-12-05T19:30:25.826686+00:00",
        "meta_object_name": "COSMOS 2547 (705K)",
        "meta_object_id": "2020-075A",
        "meta_epoch": "2025-12-04T04:48:34.576416",
        "meta_mean_motion": 2.13099889,
        "meta_eccentricity": 0.0006264,
        "meta_inclination": 64.5958,
        "meta_ra_of_asc_node": 198.9817,
        "meta_arg_of_pericenter": 229.2044,
        "meta_mean_anomaly": 130.8379,
        "meta_ephemeris_type": 0,
        "meta_classification_type": "U",
        "meta_norad_cat_id": 46805,
        "meta_element_set_no": 999,
        "meta_rev_at_epoch": 3975,
        "meta_bstar": 0,
        "meta_mean_motion_dot": 1.01e-06,
        "meta_mean_motion_ddot": 0,
        "tle_line1": "1 46805U 20075A   25338.20040019  .00000101  00000+0  00000+0 0  9994",
        "tle_line2": "2 46805  64.5958 198.9817 0006264 229.2044 130.8379  2.13099889 39750"
      },
      "geometry": {
        "type": "Point",
        "coordinates": [
          8.559448256686366,
          20.749454762587405
        ]
      }
    },
    {
      "type": "Feature",
      "properties": {
        "norad_id": 52984,
        "name": "COSMOS 2557 (706K)",
        "group": "glo-ops",
        "lat": 26.94374558986114,
        "lon": -24.620958750127716,
        "alt_km": 19140.846393700052,
        "timestamp": "2025-12-05T19:30:25.826697+00:00",
        "meta_object_name": "COSMOS 2557 (706K)",
        "meta_object_id": "2022-075A",
        "meta_epoch": "2025-12-04T08:46:35.993568",
        "meta_mean_motion": 2.13101723,
        "meta_eccentricity": 0.0013727,
        "meta_inclination": 64.4144,
        "meta_ra_of_asc_node": 321.3461,
        "meta_arg_of_pericenter": 276.6628,
        "meta_mean_anomaly": 83.1807,
        "meta_ephemeris_type": 0,
        "meta_classification_type": "U",
        "meta_norad_cat_id": 52984,
        "meta_element_set_no": 999,
        "meta_rev_at_epoch": 2656,
        "meta_bstar": 0,
        "meta_mean_motion_dot": -4.7e-07,
        "meta_mean_motion_ddot": 0,
        "tle_line1": "1 52984U 22075A   25338.36569437 -.00000047  00000+0  00000+0 0  9998",
        "tle_line2": "2 52984  64.4144 321.3461 0013727 276.6628  83.1807  2.13101723 26566"
      },
      "geometry": {
        "type": "Point",
        "coordinates": [
          -24.620958750127716,
          26.94374558986114
        ]
      }
    },
    {
      "type": "Feature",
      "properties": {
        "norad_id": 54031,
        "name": "COSMOS 2559 (707K)",
        "group": "glo-ops",
        "lat": 10.01503584931104,
        "lon": 136.51337815122534,
        "alt_km": 19101.163697286593,
        "timestamp": "2025-12-05T19:30:25.826722+00:00",
        "meta_object_name": "COSMOS 2559 (707K)",
        "meta_object_id": "2022-130A",
        "meta_epoch": "2025-12-03T17:10:26.893920",
        "meta_mean_motion": 2.13101235,
        "meta_eccentricity": 0.00120262,
        "meta_inclination": 64.3873,
        "meta_ra_of_asc_node": 321.4588,
        "meta_arg_of_pericenter": 192.7508,
        "meta_mean_anomaly": 167.2215,
        "meta_ephemeris_type": 0,
        "meta_classification_type": "U",
        "meta_norad_cat_id": 54031,
        "meta_element_set_no": 999,
        "meta_rev_at_epoch": 2452,
        "meta_bstar": 0,
        "meta_mean_motion_dot": -4.4e-07,
        "meta_mean_motion_ddot": 0,
        "tle_line1": "1 54031U 22130A   25337.71558905 -.00000044  00000+0  00000+0 0  9998",
        "tle_line2": "2 54031  64.3873 321.4588 0012026 192.7508 167.2215  2.13101235 24525"
      },
      "geometry": {
        "type": "Point",
        "coordinates": [
          136.51337815122534,
          10.01503584931104
        ]
      }
    },
    {
      "type": "Feature",
      "properties": {
        "norad_id": 54377,
        "name": "COSMOS 2564 (761)",
        "group": "glo-ops",
        "lat": -59.069292277405104,
        "lon": 147.1353934659498,
        "alt_km": 19133.173705290592,
        "timestamp": "2025-12-05T19:30:25.826734+00:00",
        "meta_object_name": "COSMOS 2564 (761)",
        "meta_object_id": "2022-161A",
        "meta_epoch": "2025-12-03T13:26:12.799104",
        "meta_mean_motion": 2.13101952,
        "meta_eccentricity": 0.00087056,
        "meta_inclination": 64.7377,
        "meta_ra_of_asc_node": 199.204,
        "meta_arg_of_pericenter": 206.235,
        "meta_mean_anomaly": 153.818,
        "meta_ephemeris_type": 0,
        "meta_classification_type": "U",
        "meta_norad_cat_id": 54377,
        "meta_element_set_no": 999,
        "meta_rev_at_epoch": 2346,
        "meta_bstar": 0,
        "meta_mean_motion_dot": 1.05e-06,
        "meta_mean_motion_ddot": 0,
        "tle_line1": "1 54377U 22161A   25337.55987036  .00000105  00000+0  00000+0 0  9995",
        "tle_line2": "2 54377  64.7377 199.2040 0008705 206.2350 153.8180  2.13101952 23460"
      },
      "geometry": {
        "type": "Point",
        "coordinates": [
          147.1353934659498,
          -59.069292277405104
        ]
      }
    },
    {
      "type": "Feature",
      "properties": {
        "norad_id": 57517,
        "name": "COSMOS 2569 (703K)",
        "group": "glo-ops",
        "lat": -64.03251574295024,
        "lon": 7.6831097470568634,
        "alt_km": 19110.89327844437,
        "timestamp": "2025-12-05T19:30:25.826750+00:00",
        "meta_object_name": "COSMOS 2569 (703K)",
        "meta_object_id": "2023-114A",
        "meta_epoch": "2025-12-01T16:42:34.469856",
        "meta_mean_motion": 2.13103822,
        "meta_eccentricity": 0.0010109,
        "meta_inclination": 65.1883,
        "meta_ra_of_asc_node": 79.2867,
        "meta_arg_of_pericenter": 287.0179,
        "meta_mean_anomaly": 72.8703,
        "meta_ephemeris_type": 0,
        "meta_classification_type": "U",
        "meta_norad_cat_id": 57517,
        "meta_element_set_no": 999,
        "meta_rev_at_epoch": 1805,
        "meta_bstar": 0,
        "meta_mean_motion_dot": -1.6e-07,
        "meta_mean_motion_ddot": 0,
        "tle_line1": "1 57517U 23114A   25335.69623229 -.00000016  00000+0  00000+0 0  9999",
        "tle_line2": "2 57517  65.1883  79.2867 0010109 287.0179  72.8703  2.13103822 18055"
      },
      "geometry": {
        "type": "Point",
        "coordinates": [
          7.6831097470568634,
          -64.03251574295024
        ]
      }
    },
    {
      "type": "Feature",
      "properties": {
        "norad_id": 63130,
        "name": "COSMOS 2584 (704K)",
        "group": "glo-ops",
        "lat": 4.637898465256715,
        "lon": 81.55434982426029,
        "alt_km": 19146.835844991274,
        "timestamp": "2025-12-05T19:30:25.826761+00:00",
        "meta_object_name": "COSMOS 2584 (704K)",
        "meta_object_id": "2025-042A",
        "meta_epoch": "2025-11-26T10:06:10.904256",
        "meta_mean_motion": 2.13103062,
        "meta_eccentricity": 0.00075218,
        "meta_inclination": 64.9668,
        "meta_ra_of_asc_node": 79.7019,
        "meta_arg_of_pericenter": 212.3772,
        "meta_mean_anomaly": 147.585,
        "meta_ephemeris_type": 0,
        "meta_classification_type": "U",
        "meta_norad_cat_id": 63130,
        "meta_element_set_no": 999,
        "meta_rev_at_epoch": 572,
        "meta_bstar": 0,
        "meta_mean_motion_dot": 1.8e-07,
        "meta_mean_motion_ddot": 0,
        "tle_line1": "1 63130U 25042A   25330.42095954  .00000018  00000+0  00000+0 0  9994",
        "tle_line2": "2 63130  64.9668  79.7019 0007521 212.3772 147.5850  2.13103062  5728"
      },
      "geometry": {
        "type": "Point",
        "coordinates": [
          81.55434982426029,
          4.637898465256715
        ]
      }
    },
    {
      "type": "Feature",
      "properties": {
        "norad_id": 65590,
        "name": "COSMOS 2596 (708K)",
        "group": "glo-ops",
        "lat": 48.79650961562925,
        "lon": 109.08248526916819,
        "alt_km": 19160.292257528585,
        "timestamp": "2025-12-05T19:30:25.826772+00:00",
        "meta_object_name": "COSMOS 2596 (708K)",
        "meta_object_id": "2025-206B",
        "meta_epoch": "2025-12-05T10:56:18.216960",
        "meta_mean_motion": 2.13100168,
        "meta_eccentricity": 0.0014024,
        "meta_inclination": 64.7483,
        "meta_ra_of_asc_node": 321.7274,
        "meta_arg_of_pericenter": 304.902,
        "meta_mean_anomaly": 264.8431,
        "meta_ephemeris_type": 0,
        "meta_classification_type": "U",
        "meta_norad_cat_id": 65590,
        "meta_element_set_no": 999,
        "meta_rev_at_epoch": 177,
        "meta_bstar": 0,
        "meta_mean_motion_dot": -5e-07,
        "meta_mean_motion_ddot": 0,
        "tle_line1": "1 65590U 25206B   25339.45576640 -.00000050  00000+0  00000+0 0  9993",
        "tle_line2": "2 65590  64.7483 321.7274 0014024 304.9020 264.8431  2.13100168  1779"
      },
      "geometry": {
        "type": "Point",
        "coordinates": [
          109.08248526916819,
          48.79650961562925
        ]
      }
    }
  ]
}